<?xml version="1.0" encoding="UTF-8"?><gpx creator="Wikiloc - http://www.wikiloc.com" version="1.1" xmlns="http://www.topografix.com/GPX/1/1" xmlns:xsi="http://www.w3.org/2001/XMLSchema-instance" xsi:schemaLocation="http://www.topografix.com/GPX/1/1 http://www.topografix.com/GPX/1/1/gpx.xsd"><metadata><name><![CDATA[A Walk Through Soportújar: The Witches]]></name><author><name><![CDATA[ANGEL MOYANO]]></name><link href="https://www.wikiloc.com/wikiloc/user.do?id=3426877"><text><![CDATA[ANGEL MOYANO on Wikiloc]]></text></link></author><link href="https://www.wikiloc.com/wikiloc/view.do?id=111292297"><text><![CDATA[A Walk Through Soportújar: The Witches on Wikiloc]]></text></link><time>2022-08-20T16:05:20Z</time></metadata><wpt lat="36.928866" lon="-3.405841"><ele>1021.0</ele><name><![CDATA[Trailhead Parking]]></name><cmt><![CDATA[Trailhead Parking]]></cmt></wpt><wpt lat="36.92857" lon="-3.406117"><ele>960.0</ele><name><![CDATA[House]]></name><cmt><![CDATA[House]]></cmt></wpt><wpt lat="36.928517" lon="-3.40616"><ele>960.0</ele><name><![CDATA[House]]></name><cmt><![CDATA[House]]></cmt></wpt><wpt lat="36.928337" lon="-3.406536"><ele>955.0</ele><name><![CDATA[Panoramic View]]></name><cmt><![CDATA[Panoramic View]]></cmt></wpt><wpt lat="36.928371" lon="-3.406422"><ele>957.0</ele><name><![CDATA[Figure]]></name><cmt><![CDATA[Figure]]></cmt></wpt><wpt lat="36.928478" lon="-3.40624"><ele>954.0</ele><name><![CDATA[Fuente del Chorro]]></name><cmt><![CDATA[Fuente del Chorro]]></cmt></wpt><wpt lat="36.928366" lon="-3.405647"><ele>945.0</ele><name><![CDATA[Escoba]]></name><cmt><![CDATA[Escoba]]></cmt></wpt><wpt lat="36.928449" lon="-3.405169"><ele>944.0</ele><name><![CDATA[San Antón Fountain with Witch]]></name><cmt><![CDATA[San Antón Fountain with Witch]]></cmt></wpt><wpt lat="36.928449" lon="-3.405169"><ele>944.0</ele><name><![CDATA[Time Capsule]]></name><cmt><![CDATA[Time Capsule]]></cmt></wpt><wpt lat="36.928406" lon="-3.405129"><ele>944.0</ele><name><![CDATA[Religious Site]]></name><cmt><![CDATA[Religious Site]]></cmt></wpt><wpt lat="36.92824" lon="-3.404916"><ele>943.0</ele><name><![CDATA[Bewitched Viewpoint of the Alpujarra]]></name><cmt><![CDATA[Bewitched Viewpoint of the Alpujarra]]></cmt></wpt><wpt lat="36.92824" lon="-3.404916"><ele>943.0</ele><name><![CDATA[Mirador Fountain]]></name><cmt><![CDATA[Mirador Fountain]]></cmt></wpt><wpt lat="36.928267" lon="-3.404974"><ele>944.0</ele><name><![CDATA[Witches with Stew]]></name><cmt><![CDATA[Witches with Stew]]></cmt></wpt><wpt lat="36.928222" lon="-3.405257"><ele>939.0</ele><name><![CDATA[Trunk with Witch]]></name><cmt><![CDATA[Trunk with Witch]]></cmt></wpt><wpt lat="36.927962" lon="-3.405253"><ele>991.0</ele><name><![CDATA[Dragon]]></name><cmt><![CDATA[Dragon]]></cmt></wpt><wpt lat="36.927606" lon="-3.405447"><ele>933.0</ele><name><![CDATA[Well]]></name><cmt><![CDATA[Well]]></cmt></wpt><wpt lat="36.927408" lon="-3.405548"><ele>932.0</ele><name><![CDATA[Panoramic View]]></name><cmt><![CDATA[Panoramic View]]></cmt></wpt><wpt lat="36.927516" lon="-3.405693"><ele>931.0</ele><name><![CDATA[Calle la Zanjilla: The Narrowest Street]]></name><cmt><![CDATA[Calle la Zanjilla: The Narrowest Street]]></cmt></wpt><wpt lat="36.92753" lon="-3.406017"><ele>927.0</ele><name><![CDATA[El Moral Fountain]]></name><cmt><![CDATA[El Moral Fountain]]></cmt></wpt><wpt lat="36.927764" lon="-3.406068"><ele>936.0</ele><name><![CDATA[The Cauldrons]]></name><cmt><![CDATA[The Cauldrons]]></cmt></wpt><wpt lat="36.92796" lon="-3.406593"><ele>943.0</ele><name><![CDATA[The Spider]]></name><cmt><![CDATA[The Spider]]></cmt></wpt><wpt lat="36.928105" lon="-3.405811"><ele>945.0</ele><name><![CDATA[Snake]]></name><cmt><![CDATA[Snake]]></cmt></wpt><wpt lat="36.928563" lon="-3.404971"><ele>949.0</ele><name><![CDATA[Embedded Witch]]></name><cmt><![CDATA[Embedded Witch]]></cmt></wpt><wpt lat="36.928585" lon="-3.404938"><ele>949.0</ele><name><![CDATA[City Hall]]></name><cmt><![CDATA[City Hall]]></cmt></wpt><wpt lat="36.928648" lon="-3.404841"><ele>950.0</ele><name><![CDATA[Main Street]]></name><cmt><![CDATA[Main Street]]></cmt></wpt><wpt lat="36.927956" lon="-3.403352"><ele>949.0</ele><name><![CDATA[Tourist Information Point]]></name><cmt><![CDATA[Tourist Information Point]]></cmt></wpt><wpt lat="36.927894" lon="-3.402905"><ele>948.0</ele><name><![CDATA[Welcome to Soportújar]]></name><cmt><![CDATA[Welcome to Soportújar]]></cmt></wpt><wpt lat="36.927538" lon="-3.402886"><ele>946.0</ele><name><![CDATA[Panoramic View]]></name><cmt><![CDATA[Panoramic View]]></cmt></wpt><wpt lat="36.92656" lon="-3.398678"><ele>932.0</ele><name><![CDATA[Witch's Eye Cave]]></name><cmt><![CDATA[Witch's Eye Cave]]></cmt></wpt><wpt lat="36.926754" lon="-3.398644"><ele>941.0</ele><name><![CDATA[Interior]]></name><cmt><![CDATA[Interior]]></cmt></wpt><wpt lat="36.927858" lon="-3.398375"><ele>941.0</ele><name><![CDATA[Skeleton]]></name><cmt><![CDATA[Skeleton]]></cmt></wpt><wpt lat="36.926693" lon="-3.398388"><ele>940.0</ele><name><![CDATA[Witch]]></name><cmt><![CDATA[Witch]]></cmt></wpt><wpt lat="36.926078" lon="-3.398925"><ele>938.0</ele><name><![CDATA[Panoramic view at the end of the trail]]></name><cmt><![CDATA[Panoramic view at the end of the trail]]></cmt></wpt><trk><name><![CDATA[A Walk Through Soportújar: The Witches]]></name><cmt><![CDATA[A Walk Through Soportújar: The Witches]]></cmt><desc><![CDATA[A Walk Through Soportújar: The Witches]]></desc><trkseg><trkpt lat="36.928866" lon="-3.4058409999999997"><ele>964.482</ele><time>2022-08-20T16:05:20Z</time></trkpt><trkpt lat="36.928762" lon="-3.4059909999999998"><ele>964.443</ele><time>2022-08-20T16:05:51Z</time></trkpt><trkpt lat="36.928727" lon="-3.4060409999999997"><ele>964.317</ele><time>2022-08-20T16:05:57Z</time></trkpt><trkpt lat="36.928707" lon="-3.4060979999999996"><ele>964.209</ele><time>2022-08-20T16:06:04Z</time></trkpt><trkpt lat="36.928685" lon="-3.4061479999999995"><ele>963.049</ele><time>2022-08-20T16:06:28Z</time></trkpt><trkpt lat="36.928637" lon="-3.4061689999999993"><ele>963.089</ele><time>2022-08-20T16:06:33Z</time></trkpt><trkpt lat="36.92861" lon="-3.4062139999999994"><ele>963.059</ele><time>2022-08-20T16:06:42Z</time></trkpt><trkpt lat="36.928566" lon="-3.4062279999999996"><ele>963.070</ele><time>2022-08-20T16:07:04Z</time></trkpt><trkpt lat="36.928585999999996" lon="-3.4062849999999996"><ele>961.617</ele><time>2022-08-20T16:07:37Z</time></trkpt><trkpt lat="36.92856" lon="-3.4062299999999994"><ele>959.710</ele><time>2022-08-20T16:08:04Z</time></trkpt><trkpt lat="36.928554999999996" lon="-3.4061729999999995"><ele>959.640</ele><time>2022-08-20T16:08:22Z</time></trkpt><trkpt lat="36.928568999999996" lon="-3.4061189999999995"><ele>959.647</ele><time>2022-08-20T16:08:31Z</time></trkpt><trkpt lat="36.928526999999995" lon="-3.4060959999999993"><ele>960.135</ele><time>2022-08-20T16:10:43Z</time></trkpt><trkpt lat="36.92851699999999" lon="-3.4061619999999992"><ele>960.184</ele><time>2022-08-20T16:11:16Z</time></trkpt><trkpt lat="36.92847299999999" lon="-3.406176999999999"><ele>960.007</ele><time>2022-08-20T16:11:42Z</time></trkpt><trkpt lat="36.92848499999999" lon="-3.4062319999999993"><ele>957.317</ele><time>2022-08-20T16:12:55Z</time></trkpt><trkpt lat="36.92837699999999" lon="-3.406436999999999"><ele>957.309</ele><time>2022-08-20T16:13:44Z</time></trkpt><trkpt lat="36.92838199999999" lon="-3.406528999999999"><ele>956.759</ele><time>2022-08-20T16:13:45Z</time></trkpt><trkpt lat="36.928335999999994" lon="-3.406537999999999"><ele>955.019</ele><time>2022-08-20T16:14:28Z</time></trkpt><trkpt lat="36.92836499999999" lon="-3.406485999999999"><ele>957.089</ele><time>2022-08-20T16:21:16Z</time></trkpt><trkpt lat="36.928369999999994" lon="-3.4064249999999987"><ele>957.030</ele><time>2022-08-20T16:21:23Z</time></trkpt><trkpt lat="36.92840199999999" lon="-3.4063789999999985"><ele>954.317</ele><time>2022-08-20T16:23:02Z</time></trkpt><trkpt lat="36.92840699999999" lon="-3.4063219999999985"><ele>954.380</ele><time>2022-08-20T16:23:13Z</time></trkpt><trkpt lat="36.92843799999999" lon="-3.4062749999999986"><ele>954.350</ele><time>2022-08-20T16:23:41Z</time></trkpt><trkpt lat="36.928475999999996" lon="-3.4062429999999986"><ele>954.297</ele><time>2022-08-20T16:23:53Z</time></trkpt><trkpt lat="36.928475999999996" lon="-3.4061849999999985"><ele>954.135</ele><time>2022-08-20T16:24:12Z</time></trkpt><trkpt lat="36.928487999999994" lon="-3.4062419999999984"><ele>953.572</ele><time>2022-08-20T16:25:36Z</time></trkpt><trkpt lat="36.92847799999999" lon="-3.4061799999999987"><ele>953.113</ele><time>2022-08-20T16:26:41Z</time></trkpt><trkpt lat="36.92846999999999" lon="-3.406123999999999"><ele>953.014</ele><time>2022-08-20T16:26:50Z</time></trkpt><trkpt lat="36.92848799999999" lon="-3.4060689999999987"><ele>952.909</ele><time>2022-08-20T16:27:18Z</time></trkpt><trkpt lat="36.928482999999986" lon="-3.406006999999999"><ele>952.628</ele><time>2022-08-20T16:27:35Z</time></trkpt><trkpt lat="36.928508999999984" lon="-3.405956999999999"><ele>951.758</ele><time>2022-08-20T16:27:42Z</time></trkpt><trkpt lat="36.92851899999999" lon="-3.405896999999999"><ele>951.238</ele><time>2022-08-20T16:27:50Z</time></trkpt><trkpt lat="36.928516999999985" lon="-3.405838999999999"><ele>951.089</ele><time>2022-08-20T16:27:55Z</time></trkpt><trkpt lat="36.928502999999985" lon="-3.405781999999999"><ele>950.876</ele><time>2022-08-20T16:28:04Z</time></trkpt><trkpt lat="36.928463999999984" lon="-3.405751999999999"><ele>950.689</ele><time>2022-08-20T16:28:52Z</time></trkpt><trkpt lat="36.928434999999986" lon="-3.4057069999999987"><ele>950.129</ele><time>2022-08-20T16:29:33Z</time></trkpt><trkpt lat="36.92840799999998" lon="-3.405653999999999"><ele>946.266</ele><time>2022-08-20T16:30:15Z</time></trkpt><trkpt lat="36.92836299999998" lon="-3.405647999999999"><ele>945.654</ele><time>2022-08-20T16:30:35Z</time></trkpt><trkpt lat="36.92837499999998" lon="-3.405586999999999"><ele>944.689</ele><time>2022-08-20T16:32:22Z</time></trkpt><trkpt lat="36.92840899999998" lon="-3.405535999999999"><ele>944.506</ele><time>2022-08-20T16:32:28Z</time></trkpt><trkpt lat="36.928418999999984" lon="-3.405478999999999"><ele>946.026</ele><time>2022-08-20T16:32:38Z</time></trkpt><trkpt lat="36.92844799999998" lon="-3.4054329999999986"><ele>946.109</ele><time>2022-08-20T16:32:47Z</time></trkpt><trkpt lat="36.928488999999985" lon="-3.405408999999999"><ele>947.379</ele><time>2022-08-20T16:32:54Z</time></trkpt><trkpt lat="36.928513999999986" lon="-3.405459999999999"><ele>947.369</ele><time>2022-08-20T16:33:09Z</time></trkpt><trkpt lat="36.92855999999998" lon="-3.405491999999999"><ele>947.129</ele><time>2022-08-20T16:33:29Z</time></trkpt><trkpt lat="36.928601999999984" lon="-3.405521999999999"><ele>947.130</ele><time>2022-08-20T16:33:34Z</time></trkpt><trkpt lat="36.928646999999984" lon="-3.405534999999999"><ele>946.887</ele><time>2022-08-20T16:33:42Z</time></trkpt><trkpt lat="36.92866399999998" lon="-3.405480999999999"><ele>946.720</ele><time>2022-08-20T16:33:59Z</time></trkpt><trkpt lat="36.92868399999998" lon="-3.405422999999999"><ele>946.460</ele><time>2022-08-20T16:34:10Z</time></trkpt><trkpt lat="36.92865399999998" lon="-3.405377999999999"><ele>946.127</ele><time>2022-08-20T16:34:18Z</time></trkpt><trkpt lat="36.92862099999998" lon="-3.405337999999999"><ele>946.065</ele><time>2022-08-20T16:34:24Z</time></trkpt><trkpt lat="36.92858099999998" lon="-3.405301999999999"><ele>945.834</ele><time>2022-08-20T16:34:33Z</time></trkpt><trkpt lat="36.92856599999998" lon="-3.405248999999999"><ele>945.855</ele><time>2022-08-20T16:34:39Z</time></trkpt><trkpt lat="36.92853299999998" lon="-3.405202999999999"><ele>945.710</ele><time>2022-08-20T16:34:52Z</time></trkpt><trkpt lat="36.92848999999998" lon="-3.405180999999999"><ele>945.209</ele><time>2022-08-20T16:35:02Z</time></trkpt><trkpt lat="36.92844599999998" lon="-3.4051669999999987"><ele>944.634</ele><time>2022-08-20T16:35:31Z</time></trkpt><trkpt lat="36.92846399999998" lon="-3.4052199999999986"><ele>944.674</ele><time>2022-08-20T16:36:20Z</time></trkpt><trkpt lat="36.928436999999974" lon="-3.4051709999999984"><ele>944.674</ele><time>2022-08-20T16:36:41Z</time></trkpt><trkpt lat="36.92840199999998" lon="-3.4051279999999986"><ele>944.675</ele><time>2022-08-20T16:36:46Z</time></trkpt><trkpt lat="36.92837899999998" lon="-3.4050789999999984"><ele>944.482</ele><time>2022-08-20T16:37:18Z</time></trkpt><trkpt lat="36.92835099999998" lon="-3.4050199999999986"><ele>944.175</ele><time>2022-08-20T16:37:25Z</time></trkpt><trkpt lat="36.928300999999976" lon="-3.4050069999999986"><ele>943.765</ele><time>2022-08-20T16:37:30Z</time></trkpt><trkpt lat="36.928264999999975" lon="-3.4049689999999986"><ele>943.692</ele><time>2022-08-20T16:37:36Z</time></trkpt><trkpt lat="36.92823599999998" lon="-3.4049159999999987"><ele>943.580</ele><time>2022-08-20T16:37:44Z</time></trkpt><trkpt lat="36.92826299999998" lon="-3.404973999999999"><ele>944.018</ele><time>2022-08-20T16:41:01Z</time></trkpt><trkpt lat="36.92828199999998" lon="-3.4050269999999987"><ele>943.298</ele><time>2022-08-20T16:42:36Z</time></trkpt><trkpt lat="36.928328999999984" lon="-3.405056999999999"><ele>943.117</ele><time>2022-08-20T16:42:41Z</time></trkpt><trkpt lat="36.928358999999986" lon="-3.405098999999999"><ele>943.009</ele><time>2022-08-20T16:42:47Z</time></trkpt><trkpt lat="36.928333999999985" lon="-3.405147999999999"><ele>942.552</ele><time>2022-08-20T16:43:21Z</time></trkpt><trkpt lat="36.92829399999999" lon="-3.4051779999999994"><ele>942.362</ele><time>2022-08-20T16:43:32Z</time></trkpt><trkpt lat="36.92824899999999" lon="-3.4051999999999993"><ele>942.292</ele><time>2022-08-20T16:43:37Z</time></trkpt><trkpt lat="36.92821699999999" lon="-3.4052549999999995"><ele>939.713</ele><time>2022-08-20T16:44:20Z</time></trkpt><trkpt lat="36.92818599999999" lon="-3.4052139999999995"><ele>939.420</ele><time>2022-08-20T16:44:58Z</time></trkpt><trkpt lat="36.92789899999999" lon="-3.4054329999999995"><ele>939.413</ele><time>2022-08-20T16:48:00Z</time></trkpt><trkpt lat="36.92796799999999" lon="-3.4053799999999996"><ele>939.443</ele><time>2022-08-20T16:48:01Z</time></trkpt><trkpt lat="36.92813699999999" lon="-3.4051439999999995"><ele>939.440</ele><time>2022-08-20T16:48:03Z</time></trkpt><trkpt lat="36.92796099999999" lon="-3.4052529999999996"><ele>939.498</ele><time>2022-08-20T16:48:38Z</time></trkpt><trkpt lat="36.92792799999999" lon="-3.405213"><ele>938.951</ele><time>2022-08-20T16:50:21Z</time></trkpt><trkpt lat="36.92788199999999" lon="-3.405189"><ele>938.901</ele><time>2022-08-20T16:50:30Z</time></trkpt><trkpt lat="36.92791699999999" lon="-3.405227"><ele>938.811</ele><time>2022-08-20T16:50:45Z</time></trkpt><trkpt lat="36.92799999999998" lon="-3.405247"><ele>938.709</ele><time>2022-08-20T16:52:59Z</time></trkpt><trkpt lat="36.92795499999998" lon="-3.405246"><ele>937.846</ele><time>2022-08-20T16:53:05Z</time></trkpt><trkpt lat="36.927604999999986" lon="-3.405447"><ele>933.256</ele><time>2022-08-20T16:57:30Z</time></trkpt><trkpt lat="36.927571999999984" lon="-3.405504"><ele>932.916</ele><time>2022-08-20T16:58:31Z</time></trkpt><trkpt lat="36.927514999999985" lon="-3.405526"><ele>932.727</ele><time>2022-08-20T16:58:36Z</time></trkpt><trkpt lat="36.92745999999998" lon="-3.405532"><ele>932.394</ele><time>2022-08-20T16:58:43Z</time></trkpt><trkpt lat="36.927407999999986" lon="-3.405548"><ele>932.247</ele><time>2022-08-20T16:58:50Z</time></trkpt><trkpt lat="36.92747199999999" lon="-3.405519"><ele>928.917</ele><time>2022-08-20T16:59:40Z</time></trkpt><trkpt lat="36.927497999999986" lon="-3.405573"><ele>929.164</ele><time>2022-08-20T16:59:56Z</time></trkpt><trkpt lat="36.92748799999998" lon="-3.405648"><ele>929.322</ele><time>2022-08-20T17:00:01Z</time></trkpt><trkpt lat="36.92751699999998" lon="-3.405693"><ele>931.115</ele><time>2022-08-20T17:00:09Z</time></trkpt><trkpt lat="36.92756299999998" lon="-3.4057"><ele>932.465</ele><time>2022-08-20T17:01:38Z</time></trkpt><trkpt lat="36.92756599999998" lon="-3.405765"><ele>932.511</ele><time>2022-08-20T17:02:01Z</time></trkpt><trkpt lat="36.927577999999976" lon="-3.4058200000000003"><ele>932.509</ele><time>2022-08-20T17:02:06Z</time></trkpt><trkpt lat="36.927594999999975" lon="-3.405873"><ele>932.912</ele><time>2022-08-20T17:02:19Z</time></trkpt><trkpt lat="36.927602999999976" lon="-3.405929"><ele>933.652</ele><time>2022-08-20T17:02:56Z</time></trkpt><trkpt lat="36.927580999999975" lon="-3.405989"><ele>933.672</ele><time>2022-08-20T17:03:02Z</time></trkpt><trkpt lat="36.92754899999998" lon="-3.406033"><ele>933.753</ele><time>2022-08-20T17:03:14Z</time></trkpt><trkpt lat="36.927504999999975" lon="-3.406069"><ele>933.620</ele><time>2022-08-20T17:03:28Z</time></trkpt><trkpt lat="36.92747199999997" lon="-3.406112"><ele>932.123</ele><time>2022-08-20T17:03:36Z</time></trkpt><trkpt lat="36.92745599999997" lon="-3.4061679999999996"><ele>930.843</ele><time>2022-08-20T17:03:44Z</time></trkpt><trkpt lat="36.92741899999997" lon="-3.4062049999999995"><ele>929.920</ele><time>2022-08-20T17:03:53Z</time></trkpt><trkpt lat="36.92744799999997" lon="-3.4061559999999993"><ele>927.048</ele><time>2022-08-20T17:04:12Z</time></trkpt><trkpt lat="36.92746199999997" lon="-3.4061019999999993"><ele>926.961</ele><time>2022-08-20T17:04:16Z</time></trkpt><trkpt lat="36.92749099999997" lon="-3.4060549999999994"><ele>926.821</ele><time>2022-08-20T17:04:23Z</time></trkpt><trkpt lat="36.92753199999997" lon="-3.4060179999999995"><ele>926.713</ele><time>2022-08-20T17:04:29Z</time></trkpt><trkpt lat="36.92757699999997" lon="-3.4060209999999995"><ele>930.309</ele><time>2022-08-20T17:04:47Z</time></trkpt><trkpt lat="36.92760199999997" lon="-3.4059709999999996"><ele>932.067</ele><time>2022-08-20T17:05:08Z</time></trkpt><trkpt lat="36.92762499999997" lon="-3.4059189999999995"><ele>932.087</ele><time>2022-08-20T17:05:14Z</time></trkpt><trkpt lat="36.92765099999997" lon="-3.4058719999999996"><ele>932.187</ele><time>2022-08-20T17:05:24Z</time></trkpt><trkpt lat="36.92768699999997" lon="-3.4059159999999995"><ele>932.168</ele><time>2022-08-20T17:05:34Z</time></trkpt><trkpt lat="36.92772099999997" lon="-3.4059619999999997"><ele>932.235</ele><time>2022-08-20T17:05:37Z</time></trkpt><trkpt lat="36.92775599999997" lon="-3.406014"><ele>934.168</ele><time>2022-08-20T17:05:41Z</time></trkpt><trkpt lat="36.92776599999997" lon="-3.406069"><ele>936.568</ele><time>2022-08-20T17:05:56Z</time></trkpt><trkpt lat="36.92777199999997" lon="-3.406129"><ele>938.625</ele><time>2022-08-20T17:06:56Z</time></trkpt><trkpt lat="36.92778899999997" lon="-3.406182"><ele>938.663</ele><time>2022-08-20T17:07:02Z</time></trkpt><trkpt lat="36.92783999999997" lon="-3.4061749999999997"><ele>938.776</ele><time>2022-08-20T17:07:20Z</time></trkpt><trkpt lat="36.92788199999997" lon="-3.406205"><ele>938.990</ele><time>2022-08-20T17:07:31Z</time></trkpt><trkpt lat="36.927913999999966" lon="-3.4062639999999997"><ele>939.319</ele><time>2022-08-20T17:07:36Z</time></trkpt><trkpt lat="36.92795199999997" lon="-3.4063009999999996"><ele>940.009</ele><time>2022-08-20T17:07:44Z</time></trkpt><trkpt lat="36.92797799999997" lon="-3.4063709999999996"><ele>941.098</ele><time>2022-08-20T17:07:50Z</time></trkpt><trkpt lat="36.92798599999997" lon="-3.4064299999999994"><ele>941.978</ele><time>2022-08-20T17:07:55Z</time></trkpt><trkpt lat="36.927969999999966" lon="-3.4064829999999993"><ele>942.988</ele><time>2022-08-20T17:08:02Z</time></trkpt><trkpt lat="36.927950999999965" lon="-3.4065379999999994"><ele>943.189</ele><time>2022-08-20T17:08:07Z</time></trkpt><trkpt lat="36.927961999999965" lon="-3.4065939999999992"><ele>943.226</ele><time>2022-08-20T17:08:50Z</time></trkpt><trkpt lat="36.92794099999997" lon="-3.406643999999999"><ele>943.939</ele><time>2022-08-20T17:09:44Z</time></trkpt><trkpt lat="36.927941999999966" lon="-3.406583999999999"><ele>944.039</ele><time>2022-08-20T17:10:10Z</time></trkpt><trkpt lat="36.927970999999964" lon="-3.4065369999999993"><ele>944.176</ele><time>2022-08-20T17:10:21Z</time></trkpt><trkpt lat="36.927989999999966" lon="-3.4064839999999994"><ele>943.564</ele><time>2022-08-20T17:10:41Z</time></trkpt><trkpt lat="36.928017999999966" lon="-3.4064339999999995"><ele>943.279</ele><time>2022-08-20T17:10:46Z</time></trkpt><trkpt lat="36.92806199999997" lon="-3.4063989999999995"><ele>943.105</ele><time>2022-08-20T17:10:52Z</time></trkpt><trkpt lat="36.92809499999997" lon="-3.4063509999999995"><ele>943.125</ele><time>2022-08-20T17:10:59Z</time></trkpt><trkpt lat="36.92812199999997" lon="-3.4063009999999996"><ele>943.109</ele><time>2022-08-20T17:11:05Z</time></trkpt><trkpt lat="36.928129999999975" lon="-3.4062429999999995"><ele>947.268</ele><time>2022-08-20T17:11:30Z</time></trkpt><trkpt lat="36.928118999999974" lon="-3.4061879999999993"><ele>947.478</ele><time>2022-08-20T17:11:45Z</time></trkpt><trkpt lat="36.92808099999997" lon="-3.406154999999999"><ele>947.328</ele><time>2022-08-20T17:12:01Z</time></trkpt><trkpt lat="36.92806399999997" lon="-3.406096999999999"><ele>947.269</ele><time>2022-08-20T17:12:17Z</time></trkpt><trkpt lat="36.92799999999997" lon="-3.405970999999999"><ele>947.236</ele><time>2022-08-20T17:12:28Z</time></trkpt><trkpt lat="36.92795099999997" lon="-3.4059179999999993"><ele>946.059</ele><time>2022-08-20T17:12:37Z</time></trkpt><trkpt lat="36.92800199999997" lon="-3.4059239999999993"><ele>945.649</ele><time>2022-08-20T17:12:51Z</time></trkpt><trkpt lat="36.92805899999997" lon="-3.405903999999999"><ele>945.476</ele><time>2022-08-20T17:12:55Z</time></trkpt><trkpt lat="36.92809899999997" lon="-3.405870999999999"><ele>945.334</ele><time>2022-08-20T17:12:58Z</time></trkpt><trkpt lat="36.92810699999997" lon="-3.405809999999999"><ele>945.322</ele><time>2022-08-20T17:13:06Z</time></trkpt><trkpt lat="36.92810499999997" lon="-3.405748999999999"><ele>945.162</ele><time>2022-08-20T17:13:30Z</time></trkpt><trkpt lat="36.928150999999964" lon="-3.4057539999999986"><ele>943.808</ele><time>2022-08-20T17:14:44Z</time></trkpt><trkpt lat="36.928181999999964" lon="-3.405713999999999"><ele>943.809</ele><time>2022-08-20T17:15:19Z</time></trkpt><trkpt lat="36.928184999999964" lon="-3.4056529999999987"><ele>943.853</ele><time>2022-08-20T17:15:30Z</time></trkpt><trkpt lat="36.92820299999996" lon="-3.4056009999999985"><ele>943.813</ele><time>2022-08-20T17:15:36Z</time></trkpt><trkpt lat="36.92822499999996" lon="-3.4055429999999984"><ele>943.933</ele><time>2022-08-20T17:15:44Z</time></trkpt><trkpt lat="36.928254999999965" lon="-3.4054959999999985"><ele>944.314</ele><time>2022-08-20T17:15:50Z</time></trkpt><trkpt lat="36.928268999999965" lon="-3.4054369999999987"><ele>945.841</ele><time>2022-08-20T17:16:00Z</time></trkpt><trkpt lat="36.92828099999996" lon="-3.405377999999999"><ele>946.674</ele><time>2022-08-20T17:16:06Z</time></trkpt><trkpt lat="36.92831499999996" lon="-3.4053289999999987"><ele>947.124</ele><time>2022-08-20T17:16:11Z</time></trkpt><trkpt lat="36.92834699999996" lon="-3.4052869999999986"><ele>947.491</ele><time>2022-08-20T17:16:15Z</time></trkpt><trkpt lat="36.92838899999996" lon="-3.4052569999999984"><ele>947.689</ele><time>2022-08-20T17:16:21Z</time></trkpt><trkpt lat="36.92843099999996" lon="-3.4052329999999986"><ele>947.682</ele><time>2022-08-20T17:16:36Z</time></trkpt><trkpt lat="36.92844899999996" lon="-3.405173999999999"><ele>947.643</ele><time>2022-08-20T17:16:42Z</time></trkpt><trkpt lat="36.928469999999955" lon="-3.4051059999999986"><ele>947.617</ele><time>2022-08-20T17:16:47Z</time></trkpt><trkpt lat="36.928500999999955" lon="-3.4050579999999986"><ele>947.609</ele><time>2022-08-20T17:16:53Z</time></trkpt><trkpt lat="36.92853299999995" lon="-3.4050099999999985"><ele>947.789</ele><time>2022-08-20T17:16:59Z</time></trkpt><trkpt lat="36.92856499999995" lon="-3.4049699999999987"><ele>949.299</ele><time>2022-08-20T17:17:16Z</time></trkpt><trkpt lat="36.92864999999995" lon="-3.4048399999999988"><ele>950.199</ele><time>2022-08-20T17:23:29Z</time></trkpt><trkpt lat="36.928695999999945" lon="-3.4048129999999985"><ele>951.320</ele><time>2022-08-20T17:23:58Z</time></trkpt><trkpt lat="36.92873999999995" lon="-3.4047849999999986"><ele>951.497</ele><time>2022-08-20T17:24:05Z</time></trkpt><trkpt lat="36.928779999999946" lon="-3.4047579999999984"><ele>951.550</ele><time>2022-08-20T17:24:26Z</time></trkpt><trkpt lat="36.92882399999995" lon="-3.4047359999999984"><ele>951.650</ele><time>2022-08-20T17:24:41Z</time></trkpt><trkpt lat="36.92887499999995" lon="-3.4047469999999986"><ele>952.027</ele><time>2022-08-20T17:24:56Z</time></trkpt><trkpt lat="36.928903999999946" lon="-3.4046979999999984"><ele>952.345</ele><time>2022-08-20T17:25:00Z</time></trkpt><trkpt lat="36.92893699999995" lon="-3.4046509999999985"><ele>952.541</ele><time>2022-08-20T17:25:06Z</time></trkpt><trkpt lat="36.928962999999946" lon="-3.4045879999999986"><ele>953.381</ele><time>2022-08-20T17:25:35Z</time></trkpt><trkpt lat="36.92898199999995" lon="-3.4045309999999986"><ele>953.309</ele><time>2022-08-20T17:25:40Z</time></trkpt><trkpt lat="36.92900999999995" lon="-3.4044799999999986"><ele>953.409</ele><time>2022-08-20T17:25:48Z</time></trkpt><trkpt lat="36.92900999999995" lon="-3.4044219999999985"><ele>953.595</ele><time>2022-08-20T17:25:59Z</time></trkpt><trkpt lat="36.92902199999995" lon="-3.4043599999999987"><ele>954.045</ele><time>2022-08-20T17:26:12Z</time></trkpt><trkpt lat="36.92903599999995" lon="-3.4043059999999987"><ele>954.115</ele><time>2022-08-20T17:26:25Z</time></trkpt><trkpt lat="36.928174999999946" lon="-3.4038009999999987"><ele>951.676</ele><time>2022-08-20T18:05:55Z</time></trkpt><trkpt lat="36.92814299999995" lon="-3.4037549999999985"><ele>951.463</ele><time>2022-08-20T18:06:00Z</time></trkpt><trkpt lat="36.92810799999995" lon="-3.4037169999999985"><ele>951.376</ele><time>2022-08-20T18:06:05Z</time></trkpt><trkpt lat="36.92807699999995" lon="-3.4036689999999985"><ele>951.276</ele><time>2022-08-20T18:06:11Z</time></trkpt><trkpt lat="36.928061999999954" lon="-3.4036069999999987"><ele>951.113</ele><time>2022-08-20T18:06:16Z</time></trkpt><trkpt lat="36.92804899999995" lon="-3.4035469999999988"><ele>951.011</ele><time>2022-08-20T18:06:21Z</time></trkpt><trkpt lat="36.92803499999995" lon="-3.403489999999999"><ele>950.395</ele><time>2022-08-20T18:06:26Z</time></trkpt><trkpt lat="36.92800999999995" lon="-3.4034409999999986"><ele>950.149</ele><time>2022-08-20T18:06:31Z</time></trkpt><trkpt lat="36.92796899999995" lon="-3.4034149999999985"><ele>949.923</ele><time>2022-08-20T18:06:36Z</time></trkpt><trkpt lat="36.92795999999995" lon="-3.4033519999999986"><ele>949.409</ele><time>2022-08-20T18:06:47Z</time></trkpt><trkpt lat="36.92792399999995" lon="-3.4033959999999985"><ele>949.010</ele><time>2022-08-20T18:07:55Z</time></trkpt><trkpt lat="36.92790099999995" lon="-3.4034439999999986"><ele>948.920</ele><time>2022-08-20T18:08:22Z</time></trkpt><trkpt lat="36.92791399999995" lon="-3.4033879999999987"><ele>947.760</ele><time>2022-08-20T18:09:19Z</time></trkpt><trkpt lat="36.92791199999995" lon="-3.403324999999999"><ele>947.831</ele><time>2022-08-20T18:09:47Z</time></trkpt><trkpt lat="36.92793599999995" lon="-3.403264999999999"><ele>947.928</ele><time>2022-08-20T18:09:58Z</time></trkpt><trkpt lat="36.92795899999995" lon="-3.403208999999999"><ele>948.041</ele><time>2022-08-20T18:10:03Z</time></trkpt><trkpt lat="36.92797899999995" lon="-3.403153999999999"><ele>948.161</ele><time>2022-08-20T18:10:08Z</time></trkpt><trkpt lat="36.92797599999995" lon="-3.403096999999999"><ele>948.598</ele><time>2022-08-20T18:10:20Z</time></trkpt><trkpt lat="36.92798499999995" lon="-3.403035999999999"><ele>948.786</ele><time>2022-08-20T18:10:24Z</time></trkpt><trkpt lat="36.92797099999995" lon="-3.4029749999999988"><ele>948.463</ele><time>2022-08-20T18:10:29Z</time></trkpt><trkpt lat="36.92793899999995" lon="-3.402933999999999"><ele>948.344</ele><time>2022-08-20T18:10:33Z</time></trkpt><trkpt lat="36.927895999999954" lon="-3.402905999999999"><ele>948.218</ele><time>2022-08-20T18:10:47Z</time></trkpt><trkpt lat="36.92790899999996" lon="-3.402845999999999"><ele>948.209</ele><time>2022-08-20T18:11:37Z</time></trkpt><trkpt lat="36.92795399999996" lon="-3.402839999999999"><ele>948.017</ele><time>2022-08-20T18:12:01Z</time></trkpt><trkpt lat="36.92790799999996" lon="-3.402851999999999"><ele>947.967</ele><time>2022-08-20T18:12:18Z</time></trkpt><trkpt lat="36.92786199999996" lon="-3.4028509999999987"><ele>947.857</ele><time>2022-08-20T18:12:25Z</time></trkpt><trkpt lat="36.92779799999996" lon="-3.4028759999999987"><ele>947.828</ele><time>2022-08-20T18:12:29Z</time></trkpt><trkpt lat="36.92774199999996" lon="-3.4028829999999988"><ele>947.735</ele><time>2022-08-20T18:12:32Z</time></trkpt><trkpt lat="36.92769499999996" lon="-3.4028719999999986"><ele>947.518</ele><time>2022-08-20T18:12:35Z</time></trkpt><trkpt lat="36.927644999999956" lon="-3.4028809999999985"><ele>947.148</ele><time>2022-08-20T18:12:40Z</time></trkpt><trkpt lat="36.92758799999996" lon="-3.4028819999999986"><ele>946.845</ele><time>2022-08-20T18:12:45Z</time></trkpt><trkpt lat="36.92753899999996" lon="-3.4028869999999984"><ele>946.673</ele><time>2022-08-20T18:12:50Z</time></trkpt><trkpt lat="36.92749699999996" lon="-3.4028499999999986"><ele>945.862</ele><time>2022-08-20T18:14:33Z</time></trkpt><trkpt lat="36.92745199999996" lon="-3.4028339999999986"><ele>945.783</ele><time>2022-08-20T18:14:38Z</time></trkpt><trkpt lat="36.92740399999996" lon="-3.4028169999999984"><ele>945.811</ele><time>2022-08-20T18:14:44Z</time></trkpt><trkpt lat="36.92735999999996" lon="-3.4027909999999983"><ele>945.609</ele><time>2022-08-20T18:14:48Z</time></trkpt><trkpt lat="36.927306999999956" lon="-3.4027749999999983"><ele>945.377</ele><time>2022-08-20T18:14:53Z</time></trkpt><trkpt lat="36.92726399999996" lon="-3.4027499999999984"><ele>944.817</ele><time>2022-08-20T18:14:57Z</time></trkpt><trkpt lat="36.92722099999996" lon="-3.4027159999999985"><ele>944.757</ele><time>2022-08-20T18:15:02Z</time></trkpt><trkpt lat="36.92717699999996" lon="-3.4026729999999987"><ele>944.528</ele><time>2022-08-20T18:15:08Z</time></trkpt><trkpt lat="36.92712899999996" lon="-3.402632999999999"><ele>943.845</ele><time>2022-08-20T18:15:15Z</time></trkpt><trkpt lat="36.92709199999996" lon="-3.402598999999999"><ele>943.758</ele><time>2022-08-20T18:15:18Z</time></trkpt><trkpt lat="36.927064999999956" lon="-3.402550999999999"><ele>943.688</ele><time>2022-08-20T18:15:22Z</time></trkpt><trkpt lat="36.927042999999955" lon="-3.402497999999999"><ele>943.695</ele><time>2022-08-20T18:15:28Z</time></trkpt><trkpt lat="36.927020999999954" lon="-3.4024479999999993"><ele>943.723</ele><time>2022-08-20T18:15:32Z</time></trkpt><trkpt lat="36.92698299999995" lon="-3.4023939999999993"><ele>943.951</ele><time>2022-08-20T18:15:36Z</time></trkpt><trkpt lat="36.92694999999995" lon="-3.402347999999999"><ele>944.001</ele><time>2022-08-20T18:15:40Z</time></trkpt><trkpt lat="36.92691799999995" lon="-3.402293999999999"><ele>944.111</ele><time>2022-08-20T18:15:47Z</time></trkpt><trkpt lat="36.92690099999995" lon="-3.402240999999999"><ele>944.209</ele><time>2022-08-20T18:15:51Z</time></trkpt><trkpt lat="36.92688499999995" lon="-3.402176999999999"><ele>944.566</ele><time>2022-08-20T18:15:55Z</time></trkpt><trkpt lat="36.92687799999995" lon="-3.402109999999999"><ele>944.696</ele><time>2022-08-20T18:15:59Z</time></trkpt><trkpt lat="36.92686999999995" lon="-3.402051999999999"><ele>944.416</ele><time>2022-08-20T18:16:04Z</time></trkpt><trkpt lat="36.92683899999995" lon="-3.401993999999999"><ele>944.417</ele><time>2022-08-20T18:16:09Z</time></trkpt><trkpt lat="36.92681199999995" lon="-3.401934999999999"><ele>944.394</ele><time>2022-08-20T18:16:16Z</time></trkpt><trkpt lat="36.92679399999995" lon="-3.401879999999999"><ele>944.257</ele><time>2022-08-20T18:16:20Z</time></trkpt><trkpt lat="36.92677999999995" lon="-3.401818999999999"><ele>944.077</ele><time>2022-08-20T18:16:23Z</time></trkpt><trkpt lat="36.92675799999995" lon="-3.401765999999999"><ele>943.814</ele><time>2022-08-20T18:16:28Z</time></trkpt><trkpt lat="36.92672699999995" lon="-3.401711999999999"><ele>943.432</ele><time>2022-08-20T18:16:32Z</time></trkpt><trkpt lat="36.926688999999946" lon="-3.401675999999999"><ele>943.157</ele><time>2022-08-20T18:16:36Z</time></trkpt><trkpt lat="36.92665699999995" lon="-3.401631999999999"><ele>943.000</ele><time>2022-08-20T18:16:41Z</time></trkpt><trkpt lat="36.92663599999995" lon="-3.401578999999999"><ele>942.920</ele><time>2022-08-20T18:16:45Z</time></trkpt><trkpt lat="36.92661899999995" lon="-3.401521999999999"><ele>942.809</ele><time>2022-08-20T18:16:49Z</time></trkpt><trkpt lat="36.926589999999955" lon="-3.401470999999999"><ele>942.726</ele><time>2022-08-20T18:16:55Z</time></trkpt><trkpt lat="36.92655399999995" lon="-3.401432999999999"><ele>942.496</ele><time>2022-08-20T18:16:58Z</time></trkpt><trkpt lat="36.92652699999995" lon="-3.401381999999999"><ele>942.186</ele><time>2022-08-20T18:17:03Z</time></trkpt><trkpt lat="36.926505999999954" lon="-3.401325999999999"><ele>941.747</ele><time>2022-08-20T18:17:08Z</time></trkpt><trkpt lat="36.92648099999995" lon="-3.401270999999999"><ele>941.694</ele><time>2022-08-20T18:17:13Z</time></trkpt><trkpt lat="36.926451999999955" lon="-3.401214999999999"><ele>941.437</ele><time>2022-08-20T18:17:16Z</time></trkpt><trkpt lat="36.92643299999995" lon="-3.401149999999999"><ele>941.367</ele><time>2022-08-20T18:17:21Z</time></trkpt><trkpt lat="36.92640899999995" lon="-3.401086999999999"><ele>941.124</ele><time>2022-08-20T18:17:26Z</time></trkpt><trkpt lat="36.92638699999995" lon="-3.401029999999999"><ele>940.782</ele><time>2022-08-20T18:17:32Z</time></trkpt><trkpt lat="36.926370999999946" lon="-3.400974999999999"><ele>940.529</ele><time>2022-08-20T18:17:37Z</time></trkpt><trkpt lat="36.92635099999995" lon="-3.400913999999999"><ele>940.500</ele><time>2022-08-20T18:17:43Z</time></trkpt><trkpt lat="36.926340999999944" lon="-3.400857999999999"><ele>940.420</ele><time>2022-08-20T18:17:47Z</time></trkpt><trkpt lat="36.926345999999945" lon="-3.400791999999999"><ele>940.309</ele><time>2022-08-20T18:17:51Z</time></trkpt><trkpt lat="36.92634999999994" lon="-3.4007259999999992"><ele>940.063</ele><time>2022-08-20T18:17:56Z</time></trkpt><trkpt lat="36.926357999999944" lon="-3.4006629999999993"><ele>940.193</ele><time>2022-08-20T18:18:00Z</time></trkpt><trkpt lat="36.926370999999946" lon="-3.4006019999999992"><ele>940.013</ele><time>2022-08-20T18:18:05Z</time></trkpt><trkpt lat="36.92638399999995" lon="-3.4005399999999995"><ele>939.854</ele><time>2022-08-20T18:18:08Z</time></trkpt><trkpt lat="36.92640399999995" lon="-3.4004779999999997"><ele>939.551</ele><time>2022-08-20T18:18:12Z</time></trkpt><trkpt lat="36.926404999999946" lon="-3.400409"><ele>939.244</ele><time>2022-08-20T18:18:18Z</time></trkpt><trkpt lat="36.92641199999994" lon="-3.4003439999999996"><ele>939.094</ele><time>2022-08-20T18:18:22Z</time></trkpt><trkpt lat="36.92641299999994" lon="-3.4002869999999996"><ele>938.631</ele><time>2022-08-20T18:18:26Z</time></trkpt><trkpt lat="36.92641599999994" lon="-3.4002299999999996"><ele>938.569</ele><time>2022-08-20T18:18:29Z</time></trkpt><trkpt lat="36.92641299999994" lon="-3.4001599999999996"><ele>938.377</ele><time>2022-08-20T18:18:34Z</time></trkpt><trkpt lat="36.92640899999994" lon="-3.4000939999999997"><ele>937.861</ele><time>2022-08-20T18:18:39Z</time></trkpt><trkpt lat="36.92640899999994" lon="-3.4000209999999997"><ele>937.727</ele><time>2022-08-20T18:18:45Z</time></trkpt><trkpt lat="36.926410999999945" lon="-3.3999499999999996"><ele>937.409</ele><time>2022-08-20T18:18:50Z</time></trkpt><trkpt lat="36.92640999999995" lon="-3.3998889999999995"><ele>937.398</ele><time>2022-08-20T18:18:54Z</time></trkpt><trkpt lat="36.926401999999946" lon="-3.3998279999999994"><ele>936.428</ele><time>2022-08-20T18:18:59Z</time></trkpt><trkpt lat="36.926402999999944" lon="-3.3997579999999994"><ele>936.378</ele><time>2022-08-20T18:19:04Z</time></trkpt><trkpt lat="36.92640899999994" lon="-3.3996869999999992"><ele>935.869</ele><time>2022-08-20T18:19:09Z</time></trkpt><trkpt lat="36.926424999999945" lon="-3.3996209999999993"><ele>935.596</ele><time>2022-08-20T18:19:14Z</time></trkpt><trkpt lat="36.92643799999995" lon="-3.399565999999999"><ele>935.489</ele><time>2022-08-20T18:19:18Z</time></trkpt><trkpt lat="36.926463999999946" lon="-3.399511999999999"><ele>934.939</ele><time>2022-08-20T18:19:24Z</time></trkpt><trkpt lat="36.92648499999994" lon="-3.399460999999999"><ele>934.776</ele><time>2022-08-20T18:19:28Z</time></trkpt><trkpt lat="36.926508999999946" lon="-3.3994079999999993"><ele>934.584</ele><time>2022-08-20T18:19:32Z</time></trkpt><trkpt lat="36.92652499999995" lon="-3.399352999999999"><ele>934.137</ele><time>2022-08-20T18:19:38Z</time></trkpt><trkpt lat="36.92652499999995" lon="-3.399291999999999"><ele>933.849</ele><time>2022-08-20T18:19:42Z</time></trkpt><trkpt lat="36.92651399999995" lon="-3.399230999999999"><ele>933.513</ele><time>2022-08-20T18:19:47Z</time></trkpt><trkpt lat="36.92650799999995" lon="-3.399167999999999"><ele>932.909</ele><time>2022-08-20T18:19:52Z</time></trkpt><trkpt lat="36.92650599999995" lon="-3.399094999999999"><ele>932.734</ele><time>2022-08-20T18:19:57Z</time></trkpt><trkpt lat="36.926491999999946" lon="-3.399029999999999"><ele>932.324</ele><time>2022-08-20T18:20:02Z</time></trkpt><trkpt lat="36.926466999999946" lon="-3.3989809999999987"><ele>931.714</ele><time>2022-08-20T18:20:06Z</time></trkpt><trkpt lat="36.926432999999946" lon="-3.3989419999999986"><ele>931.395</ele><time>2022-08-20T18:20:11Z</time></trkpt><trkpt lat="36.92639299999995" lon="-3.3989069999999986"><ele>930.832</ele><time>2022-08-20T18:20:17Z</time></trkpt><trkpt lat="36.92640599999995" lon="-3.3988469999999986"><ele>930.155</ele><time>2022-08-20T18:20:24Z</time></trkpt><trkpt lat="36.92638299999995" lon="-3.3987859999999985"><ele>929.885</ele><time>2022-08-20T18:20:30Z</time></trkpt><trkpt lat="36.92642299999995" lon="-3.3987599999999984"><ele>929.762</ele><time>2022-08-20T18:20:41Z</time></trkpt><trkpt lat="36.92646699999995" lon="-3.3987309999999984"><ele>929.970</ele><time>2022-08-20T18:21:03Z</time></trkpt><trkpt lat="36.92651299999995" lon="-3.3987069999999986"><ele>930.285</ele><time>2022-08-20T18:21:14Z</time></trkpt><trkpt lat="36.92655799999995" lon="-3.3986789999999987"><ele>932.089</ele><time>2022-08-20T18:21:32Z</time></trkpt><trkpt lat="36.92660499999995" lon="-3.398647999999999"><ele>937.317</ele><time>2022-08-20T18:22:41Z</time></trkpt><trkpt lat="36.92664199999995" lon="-3.398616999999999"><ele>937.409</ele><time>2022-08-20T18:22:59Z</time></trkpt><trkpt lat="36.92661299999995" lon="-3.398665999999999"><ele>937.559</ele><time>2022-08-20T18:23:12Z</time></trkpt><trkpt lat="36.926707999999955" lon="-3.398680999999999"><ele>937.789</ele><time>2022-08-20T18:23:25Z</time></trkpt><trkpt lat="36.92675199999996" lon="-3.398643999999999"><ele>940.669</ele><time>2022-08-20T18:23:28Z</time></trkpt><trkpt lat="36.92673199999996" lon="-3.398592999999999"><ele>941.230</ele><time>2022-08-20T18:23:40Z</time></trkpt><trkpt lat="36.92677699999996" lon="-3.3985689999999993"><ele>941.237</ele><time>2022-08-20T18:23:51Z</time></trkpt><trkpt lat="36.92680799999996" lon="-3.398522999999999"><ele>941.270</ele><time>2022-08-20T18:23:54Z</time></trkpt><trkpt lat="36.92683599999996" lon="-3.398477999999999"><ele>941.260</ele><time>2022-08-20T18:23:57Z</time></trkpt><trkpt lat="36.92687199999996" lon="-3.398428999999999"><ele>941.217</ele><time>2022-08-20T18:24:00Z</time></trkpt><trkpt lat="36.92690899999996" lon="-3.398381999999999"><ele>941.385</ele><time>2022-08-20T18:24:03Z</time></trkpt><trkpt lat="36.92694199999996" lon="-3.398342999999999"><ele>941.432</ele><time>2022-08-20T18:24:05Z</time></trkpt><trkpt lat="36.92699399999996" lon="-3.398288999999999"><ele>941.492</ele><time>2022-08-20T18:24:08Z</time></trkpt><trkpt lat="36.92703199999996" lon="-3.398251999999999"><ele>941.411</ele><time>2022-08-20T18:24:10Z</time></trkpt><trkpt lat="36.92708099999996" lon="-3.398222999999999"><ele>941.409</ele><time>2022-08-20T18:24:14Z</time></trkpt><trkpt lat="36.92712799999996" lon="-3.398233999999999"><ele>941.454</ele><time>2022-08-20T18:24:19Z</time></trkpt><trkpt lat="36.92716099999996" lon="-3.3981909999999993"><ele>941.414</ele><time>2022-08-20T18:24:24Z</time></trkpt><trkpt lat="36.92720699999996" lon="-3.398163999999999"><ele>941.424</ele><time>2022-08-20T18:24:27Z</time></trkpt><trkpt lat="36.92725499999996" lon="-3.398148999999999"><ele>941.465</ele><time>2022-08-20T18:24:30Z</time></trkpt><trkpt lat="36.92729099999996" lon="-3.3981119999999994"><ele>941.492</ele><time>2022-08-20T18:24:33Z</time></trkpt><trkpt lat="36.927328999999965" lon="-3.3980509999999993"><ele>941.415</ele><time>2022-08-20T18:24:36Z</time></trkpt><trkpt lat="36.92736899999996" lon="-3.3979919999999995"><ele>941.495</ele><time>2022-08-20T18:24:40Z</time></trkpt><trkpt lat="36.92740699999997" lon="-3.3979559999999993"><ele>941.412</ele><time>2022-08-20T18:24:43Z</time></trkpt><trkpt lat="36.927381999999966" lon="-3.398046999999999"><ele>941.440</ele><time>2022-08-20T18:24:45Z</time></trkpt><trkpt lat="36.92732199999997" lon="-3.398108999999999"><ele>941.499</ele><time>2022-08-20T18:24:46Z</time></trkpt><trkpt lat="36.92724599999997" lon="-3.398192999999999"><ele>941.207</ele><time>2022-08-20T18:24:48Z</time></trkpt><trkpt lat="36.927201999999966" lon="-3.398245999999999"><ele>941.227</ele><time>2022-08-20T18:24:49Z</time></trkpt><trkpt lat="36.92720399999997" lon="-3.398356999999999"><ele>941.409</ele><time>2022-08-20T18:25:02Z</time></trkpt><trkpt lat="36.927263999999965" lon="-3.398392999999999"><ele>941.460</ele><time>2022-08-20T18:25:09Z</time></trkpt><trkpt lat="36.92728599999997" lon="-3.398449999999999"><ele>941.410</ele><time>2022-08-20T18:25:13Z</time></trkpt><trkpt lat="36.927432999999965" lon="-3.398455999999999"><ele>941.430</ele><time>2022-08-20T18:25:21Z</time></trkpt><trkpt lat="36.927488999999966" lon="-3.398462999999999"><ele>941.491</ele><time>2022-08-20T18:25:24Z</time></trkpt><trkpt lat="36.92754499999997" lon="-3.3984229999999993"><ele>941.438</ele><time>2022-08-20T18:25:30Z</time></trkpt><trkpt lat="36.92760299999997" lon="-3.398405999999999"><ele>941.461</ele><time>2022-08-20T18:25:33Z</time></trkpt><trkpt lat="36.92776599999997" lon="-3.398364999999999"><ele>941.471</ele><time>2022-08-20T18:25:43Z</time></trkpt><trkpt lat="36.92781799999997" lon="-3.398347999999999"><ele>941.458</ele><time>2022-08-20T18:25:45Z</time></trkpt><trkpt lat="36.92785699999997" lon="-3.3983779999999992"><ele>941.326</ele><time>2022-08-20T18:25:59Z</time></trkpt><trkpt lat="36.92790099999997" lon="-3.3983949999999994"><ele>941.364</ele><time>2022-08-20T18:26:03Z</time></trkpt><trkpt lat="36.92792599999997" lon="-3.3984459999999994"><ele>941.306</ele><time>2022-08-20T18:26:11Z</time></trkpt><trkpt lat="36.92785099999997" lon="-3.3984469999999996"><ele>941.216</ele><time>2022-08-20T18:26:20Z</time></trkpt><trkpt lat="36.92778399999997" lon="-3.3984459999999994"><ele>941.209</ele><time>2022-08-20T18:26:28Z</time></trkpt><trkpt lat="36.92773599999997" lon="-3.3984119999999995"><ele>941.177</ele><time>2022-08-20T18:26:35Z</time></trkpt><trkpt lat="36.92769399999997" lon="-3.3983839999999996"><ele>940.987</ele><time>2022-08-20T18:26:38Z</time></trkpt><trkpt lat="36.926613999999965" lon="-3.3986509999999996"><ele>940.637</ele><time>2022-08-20T18:27:38Z</time></trkpt><trkpt lat="36.926633999999964" lon="-3.398595"><ele>940.498</ele><time>2022-08-20T18:28:10Z</time></trkpt><trkpt lat="36.92667699999996" lon="-3.398554"><ele>940.445</ele><time>2022-08-20T18:28:18Z</time></trkpt><trkpt lat="36.92670499999996" lon="-3.3985079999999996"><ele>940.458</ele><time>2022-08-20T18:28:23Z</time></trkpt><trkpt lat="36.92671099999996" lon="-3.398446"><ele>940.368</ele><time>2022-08-20T18:28:35Z</time></trkpt><trkpt lat="36.92669199999996" lon="-3.3983909999999997"><ele>939.965</ele><time>2022-08-20T18:29:05Z</time></trkpt><trkpt lat="36.92664899999996" lon="-3.398418"><ele>939.863</ele><time>2022-08-20T18:29:38Z</time></trkpt><trkpt lat="36.926602999999965" lon="-3.3984199999999998"><ele>939.874</ele><time>2022-08-20T18:29:57Z</time></trkpt><trkpt lat="36.92656399999996" lon="-3.3984539999999996"><ele>939.856</ele><time>2022-08-20T18:30:13Z</time></trkpt><trkpt lat="36.926515999999964" lon="-3.3984749999999995"><ele>939.521</ele><time>2022-08-20T18:30:22Z</time></trkpt><trkpt lat="36.92647699999996" lon="-3.3985069999999995"><ele>938.209</ele><time>2022-08-20T18:30:27Z</time></trkpt><trkpt lat="36.926436999999964" lon="-3.3985529999999997"><ele>937.898</ele><time>2022-08-20T18:30:34Z</time></trkpt><trkpt lat="36.926394999999964" lon="-3.3985899999999996"><ele>936.898</ele><time>2022-08-20T18:30:41Z</time></trkpt><trkpt lat="36.926360999999964" lon="-3.3986359999999998"><ele>934.338</ele><time>2022-08-20T18:30:45Z</time></trkpt><trkpt lat="36.926312999999965" lon="-3.3986569999999996"><ele>933.749</ele><time>2022-08-20T18:30:51Z</time></trkpt><trkpt lat="36.92626699999997" lon="-3.3986879999999995"><ele>933.736</ele><time>2022-08-20T18:30:58Z</time></trkpt><trkpt lat="36.92622399999997" lon="-3.3987119999999993"><ele>933.799</ele><time>2022-08-20T18:31:03Z</time></trkpt><trkpt lat="36.92618399999997" lon="-3.3987419999999995"><ele>934.399</ele><time>2022-08-20T18:31:08Z</time></trkpt><trkpt lat="36.92614799999997" lon="-3.3987869999999996"><ele>935.276</ele><time>2022-08-20T18:31:14Z</time></trkpt><trkpt lat="36.92610899999997" lon="-3.3988289999999997"><ele>936.244</ele><time>2022-08-20T18:31:18Z</time></trkpt><trkpt lat="36.92606899999997" lon="-3.3988669999999996"><ele>937.128</ele><time>2022-08-20T18:31:24Z</time></trkpt><trkpt lat="36.92607999999997" lon="-3.3989279999999997"><ele>937.989</ele><time>2022-08-20T18:31:31Z</time></trkpt></trkseg></trk></gpx>